{"version": 0.6, "generator": "Overpass API 0.7.58.5 b0c4acbb", "osm3s": {"timestamp_osm_base": "2022-10-04T08:58:08Z", "copyright": "The data included in this document is from www.openstreetmap.org. The data is made available under ODbL."}, "elements": [{"type": "node", "id": 364741609, "lat": 43.7148509, "lon": 10.4013563, "tags": {"addr:city": "Pisa", "addr:housenumber": "1", "addr:postcode": "56125", "addr:street": "Corso Italia", "amenity": "pharmacy", "dispensing": "yes", "drive_through": "no", "healthcare": "pharmacy", "name": "Petri", "opening_hours": "Mo-Sa 08:30-13:30,16:00-20:00", "operator": "Petri", "phone": "+39 050 237 80", "ref:msal": "7729", "ref:vatin": "IT01271620500", "website": "http://www.farmaciapetri.it/"}}, {"type": "node", "id": 366621687, "lat": 43.7233993, "lon": 10.3922297, "tags": {"addr:city": "Pisa", "addr:housenumber": "6A", "addr:postcode": "56122", "addr:street": "Via Giovan Battista Niccolini", "amenity": "pharmacy", "drive_through": "no", "healthcare": "pharmacy", "name": "Farmacia Comunale n\u00b05", "opening_hours": "24/7", "phone": "+39 050 560258", "source": "PCN aerial 2006;Bing aerial"}}, {"type": "node", "id": 683846238, "lat": 43.7104277, "lon": 10.4309203, "tags": {"amenity": "pharmacy", "healthcare": "pharmacy", "name": "Farmacia Minucci", "opening_hours": "Mo-Sa 08:00-20:00"}}, {"type": "node", "id": 1501189791, "lat": 43.7115763, "lon": 10.3728164, "tags": {"addr:housenumber": "16", "addr:street": "Piazzale Donatello", "amenity": "pharmacy", "dispensing": "yes", "healthcare": "pharmacy", "name": "Farmacia Comunale n\u00b04", "opening_hours": "Mo-Fr 08:00-20:00;Sa 08:00-13:00", "phone": "+39 050 532316"}}, {"type": "node", "id": 1676239945, "lat": 43.7021811, "lon": 10.4000549, "tags": {"addr:housenumber": "3", "addr:street": "Via Pasquale Pardi", "amenity": "pharmacy", "healthcare": "pharmacy", "name": "Farmacia Comunale 1", "wheelchair": "yes"}}, {"type": "node", "id": 1676340398, "lat": 43.7102746, "lon": 10.4184728}, {"type": "node", "id": 1676340411, "lat": 43.7104598, "lon": 10.4183356}, {"type": "node", "id": 1676340423, "lat": 43.7102698, "lon": 10.4183447}, {"type": "node", "id": 1676340457, "lat": 43.7104643, "lon": 10.418464}, {"type": "node", "id": 2117340207, "lat": 43.7098375, "lon": 10.39927, "tags": {"addr:housenumber": "127", "addr:street": "Viale Francesco Bonaini", "amenity": "pharmacy", "dispensing": "yes", "healthcare": "pharmacy", "name": "Farmacia Baldacci", "operator": "Farmacia Baldacci del Dott. Nicotera Baldacci Federico", "ref:msal": "7717", "ref:vatin": "IT02344780503"}}, {"type": "node", "id": 2426896951, "lat": 43.7203498, "lon": 10.4116267, "tags": {"addr:city": "Pisa", "addr:housenumber": "17", "addr:postcode": "56127", "addr:street": "Via Angelo Battelli", "amenity": "pharmacy", "drive_through": "no", "healthcare": "pharmacy", "name": "Farmacia Comunale n\u00b03", "opening_hours": "Mo-Fr 08:00-20:00; Sa 8:00-13:00", "phone": "+39 050 542 902"}}, {"type": "node", "id": 2513850807, "lat": 43.7160326, "lon": 10.4033372, "tags": {"addr:city": "Pisa", "addr:housenumber": "51", "addr:postcode": "56127", "addr:street": "Lungarno Mediceo", "amenity": "pharmacy", "healthcare": "pharmacy", "name": "Farmacia Nuova", "opening_hours": "Mo-Su 08:00-23:00"}}, {"type": "node", "id": 2584385053, "lat": 43.7304557, "lon": 10.3999968, "tags": {"amenity": "pharmacy", "contact:housenumber": "59", "contact:street": "Via Ventiquattro Maggio", "dispensing": "yes", "healthcare": "pharmacy", "name": "Farmacia Comunale N,2", "ref:msal": "16883", "ref:vatin": "IT01659730509"}}, {"type": "node", "id": 2669351433, "lat": 43.696535, "lon": 10.4479737, "tags": {"amenity": "pharmacy", "healthcare": "pharmacy", "name": "Farmacia Butali"}}, {"type": "node", "id": 2755198018, "lat": 43.7137426, "lon": 10.4003668, "tags": {"addr:city": "Pisa", "addr:housenumber": "54", "addr:postcode": "56125", "addr:street": "Corso Italia", "amenity": "pharmacy", "dispensing": "yes", "drive_through": "no", "healthcare": "pharmacy", "name": "Farmacia del Carmine", "operator": "Farmacia del Carmine di Farmacia Nuova S.R.L.", "phone": "+39 050 408 01", "ref:msal": "7722", "ref:vatin": "IT01426840508", "website": "http://www.farmaciadelcarmine.pisa.it/"}}, {"type": "node", "id": 2770029621, "lat": 43.7087754, "lon": 10.4397095, "tags": {"addr:housenumber": "12", "addr:street": "Via Paradisa", "amenity": "pharmacy", "healthcare": "pharmacy", "name": "Farmacia Piccinini"}}, {"type": "node", "id": 2937002968, "lat": 43.707354, "lon": 10.4307645, "tags": {"amenity": "pharmacy", "drive_through": "no", "healthcare": "pharmacy", "name": "Farmacia Raimo", "opening_hours": "Mo-Fr 09:00-21:00; Sa 09:00-20:00"}}, {"type": "node", "id": 3102272330, "lat": 43.711375, "lon": 10.3994228, "tags": {"addr:housenumber": "168", "addr:street": "Corso Italia", "amenity": "pharmacy", "dispensing": "yes", "healthcare": "pharmacy", "name": "Guglielmino", "opening_hours": "Mo-Fr 09:00-20:00; Sa 09:00-13:00,15:30-19:30", "operator": "Farmacia Guglielmino S.N.C. del Dottor Francesco Guglielmino e C.", "ref:msal": "7734", "ref:vatin": "IT02329340505"}}, {"type": "node", "id": 3102272347, "lat": 43.7084455, "lon": 10.3980857, "tags": {"amenity": "pharmacy", "dispensing": "yes", "healthcare": "pharmacy", "name": "Pharmastazione"}}, {"type": "node", "id": 3191952097, "lat": 43.724094, "lon": 10.4022761, "tags": {"amenity": "pharmacy", "healthcare": "pharmacy", "name": "Farmacia Gazzini"}}, {"type": "node", "id": 4008178793, "lat": 43.6279558, "lon": 10.2917976, "tags": {"addr:housenumber": "133", "addr:street": "Viale del Tirreno", "amenity": "pharmacy", "dispensing": "yes", "healthcare": "pharmacy", "name": "Caroti Ghelli", "opening_hours": "09:00-13:00; 16:00-22:00", "operator": "Caroti Ghelli S.N.C. del Dr. Marcello Caroti Ghelli & C.", "ref:msal": "7724", "ref:vatin": "IT01926170505"}}, {"type": "node", "id": 5022056658, "lat": 43.7089705, "lon": 10.4062944, "tags": {"addr:city": "Pisa", "addr:housenumber": "20", "addr:postcode": "56125", "addr:street": "Via Carlo Cattaneo", "amenity": "pharmacy", "dispensing": "yes", "healthcare": "pharmacy", "name": "Farmacia San Marco", "opening_hours": "Mo-Fr 09:00-13:00,16:00-20:00; Sa 09:00-13:00", "operator": "S. Marco Della Dott.ssa Ciucci M.Letizia e C. S.A.S", "phone": "+39 050 24331", "ref:msal": "7725", "ref:vatin": "IT01735410506"}}, {"type": "node", "id": 5779113816, "lat": 43.71672, "lon": 10.3824944, "tags": {"addr:housenumber": "10", "addr:street": "Via Aurelia", "amenity": "pharmacy", "dispensing": "yes", "healthcare": "pharmacy", "name": "Farmacia Landini"}}, {"type": "node", "id": 6071017388, "lat": 43.7149503, "lon": 10.4096269, "tags": {"amenity": "pharmacy", "dispensing": "no", "healthcare": "pharmacy", "name": "Parafarmacia Pharmaval"}}, {"type": "node", "id": 7179627490, "lat": 43.7174969, "lon": 10.4021749, "tags": {"addr:city": "Pisa", "addr:housenumber": "31", "addr:postcode": "56127", "addr:street": "Borgo Stretto", "amenity": "pharmacy", "dispensing": "yes", "healthcare": "pharmacy", "name": "Farmacia Bottari", "operator": "Bottari del Dott. Antonio Bottari e C. S.N.C.", "ref:msal": "7719", "ref:vatin": "IT01798320501"}}, {"type": "node", "id": 7230987759, "lat": 43.7047919, "lon": 10.4124088, "tags": {"amenity": "pharmacy", "dispensing": "no", "healthcare": "pharmacy", "name": "Biofarma", "opening_hours": "Mo-Sa 09:00-13:00, Mo-Fr 16:00-20:00"}}, {"type": "node", "id": 7532957894, "lat": 43.7167104, "lon": 10.3949677, "tags": {"addr:housenumber": "20", "addr:street": "Via Roma", "amenity": "pharmacy", "dispensing": "yes", "healthcare": "pharmacy", "name": "Conticini", "opening_hours": "Mo-Sa 08:00-20:00", "phone": "+39 050 500273"}}, {"type": "node", "id": 9007096649, "lat": 43.6879916, "lon": 10.3664136, "tags": {"amenity": "pharmacy", "contact:city": "Pisa", "contact:housenumber": "703", "contact:postcode": "56122", "contact:street": "Via Livornese", "dispensing": "yes", "drive_through": "no", "healthcare": "pharmacy", "name": "Farmacia Conticini"}}, {"type": "node", "id": 9731014801, "lat": 43.6733223, "lon": 10.2728645, "tags": {"addr:housenumber": "149", "addr:postcode": "56128", "addr:street": "Via Maiorca", "amenity": "pharmacy", "dispensing": "yes", "healthcare": "pharmacy", "name": "Benini", "operator": "Farmacia Benini S.a.s. del dott. Nicola Giglioni e C.", "ref:msal": "7720", "ref:vatin": "IT01755330501"}}, {"type": "way", "id": 155222900, "nodes": [1676340411, 1676340457, 1676340398, 1676340423, 1676340411], "tags": {"addr:city": "Pisa", "addr:postcode": "56124", "addr:street": "Via Carlo Matteucci", "amenity": "pharmacy", "building": "yes", "building:levels": "1", "dispensing": "yes", "drive_through": "no", "healthcare": "pharmacy", "name": "Farmacia D'Igea"}}]}